{
  "type": "FeatureCollection",
  "features": [
    {
      "type": "Feature",
      "properties": {
        "norad_id": 66856,
        "name": "STARLINK-36072",
        "group": "last-30-days",
        "lat": -36.21324766091361,
        "lon": 16.326815694809127,
        "alt_km": 361.52482114976465,
        "timestamp": "2025-12-21T14:40:46.635004+00:00",
        "meta_object_name": "STARLINK-36072",
        "meta_object_id": "2025-281J",
        "meta_epoch": "2025-12-21T06:00:00.999648",
        "meta_mean_motion": 15.71383686,
        "meta_eccentricity": 0.00011645,
        "meta_inclination": 43.0003,
        "meta_ra_of_asc_node": 70.3016,
        "meta_arg_of_pericenter": 277.9693,
        "meta_mean_anomaly": 134.7217,
        "meta_ephemeris_type": 0,
        "meta_classification_type": "U",
        "meta_norad_cat_id": 66856,
        "meta_element_set_no": 999,
        "meta_rev_at_epoch": 276,
        "meta_bstar": -0.016520095,
        "meta_mean_motion_dot": -0.01923049,
        "meta_mean_motion_ddot": 0,
        "tle_line1": "1 66856U 25281J   25355.25001157 -.01923049  00000+0 -16520-1 0  9994",
        "tle_line2": "2 66856  43.0003  70.3016 0001164 277.9693 134.7217 15.71383686  2763"
      },
      "geometry": {
        "type": "Point",
        "coordinates": [
          16.326815694809127,
          -36.21324766091361
        ]
      }
    },
    {
      "type": "Feature",
      "properties": {
        "norad_id": 66857,
        "name": "STARLINK-36083",
        "group": "last-30-days",
        "lat": -35.38719873241014,
        "lon": 18.451128964708833,
        "alt_km": 361.47495623848863,
        "timestamp": "2025-12-21T14:40:46.635019+00:00",
        "meta_object_name": "STARLINK-36083",
        "meta_object_id": "2025-281K",
        "meta_epoch": "2025-12-21T06:00:00.999648",
        "meta_mean_motion": 15.71385002,
        "meta_eccentricity": 0.00011688,
        "meta_inclination": 43.0004,
        "meta_ra_of_asc_node": 70.2965,
        "meta_arg_of_pericenter": 280.2378,
        "meta_mean_anomaly": 134.3698,
        "meta_ephemeris_type": 0,
        "meta_classification_type": "U",
        "meta_norad_cat_id": 66857,
        "meta_element_set_no": 999,
        "meta_rev_at_epoch": 276,
        "meta_bstar": -0.016538187,
        "meta_mean_motion_dot": -0.01925014,
        "meta_mean_motion_ddot": 0,
        "tle_line1": "1 66857U 25281K   25355.25001157 -.01925014  00000+0 -16538-1 0  9998",
        "tle_line2": "2 66857  43.0004  70.2965 0001168 280.2378 134.3698 15.71385002  2761"
      },
      "geometry": {
        "type": "Point",
        "coordinates": [
          18.451128964708833,
          -35.38719873241014
        ]
      }
    },
    {
      "type": "Feature",
      "properties": {
        "norad_id": 66858,
        "name": "STARLINK-35118",
        "group": "last-30-days",
        "lat": -34.52401794477651,
        "lon": 20.53220699540747,
        "alt_km": 361.3723928813715,
        "timestamp": "2025-12-21T14:40:46.635029+00:00",
        "meta_object_name": "STARLINK-35118",
        "meta_object_id": "2025-281L",
        "meta_epoch": "2025-12-21T06:00:00.999648",
        "meta_mean_motion": 15.7138952,
        "meta_eccentricity": 0.00012689,
        "meta_inclination": 43.0002,
        "meta_ra_of_asc_node": 70.2917,
        "meta_arg_of_pericenter": 280.2756,
        "meta_mean_anomaly": 136.2452,
        "meta_ephemeris_type": 0,
        "meta_classification_type": "U",
        "meta_norad_cat_id": 66858,
        "meta_element_set_no": 999,
        "meta_rev_at_epoch": 254,
        "meta_bstar": -0.016576068,
        "meta_mean_motion_dot": -0.01929324,
        "meta_mean_motion_ddot": 0,
        "tle_line1": "1 66858U 25281L   25355.25001157 -.01929324  00000+0 -16576-1 0  9999",
        "tle_line2": "2 66858  43.0002  70.2917 0001268 280.2756 136.2452 15.71389520  2542"
      },
      "geometry": {
        "type": "Point",
        "coordinates": [
          20.53220699540747,
          -34.52401794477651
        ]
      }
    },
    {
      "type": "Feature",
      "properties": {
        "norad_id": 66859,
        "name": "STARLINK-35646",
        "group": "last-30-days",
        "lat": -33.62688158623874,
        "lon": 22.568813792172637,
        "alt_km": 361.37498804418647,
        "timestamp": "2025-12-21T14:40:46.635039+00:00",
        "meta_object_name": "STARLINK-35646",
        "meta_object_id": "2025-281M",
        "meta_epoch": "2025-12-21T06:00:00.999648",
        "meta_mean_motion": 15.71386536,
        "meta_eccentricity": 0.00011873,
        "meta_inclination": 43.0003,
        "meta_ra_of_asc_node": 70.2871,
        "meta_arg_of_pericenter": 282.0468,
        "meta_mean_anomaly": 136.3927,
        "meta_ephemeris_type": 0,
        "meta_classification_type": "U",
        "meta_norad_cat_id": 66859,
        "meta_element_set_no": 999,
        "meta_rev_at_epoch": 276,
        "meta_bstar": -0.01654508,
        "meta_mean_motion_dot": -0.0192585,
        "meta_mean_motion_ddot": 0,
        "tle_line1": "1 66859U 25281M   25355.25001157 -.01925850  00000+0 -16545-1 0  9996",
        "tle_line2": "2 66859  43.0003  70.2871 0001187 282.0468 136.3927 15.71386536  2769"
      },
      "geometry": {
        "type": "Point",
        "coordinates": [
          22.568813792172637,
          -33.62688158623874
        ]
      }
    },
    {
      "type": "Feature",
      "properties": {
        "norad_id": 66860,
        "name": "STARLINK-35987",
        "group": "last-30-days",
        "lat": -28.67781679727744,
        "lon": 32.139497998035054,
        "alt_km": 361.2467369716742,
        "timestamp": "2025-12-21T14:40:46.635049+00:00",
        "meta_object_name": "STARLINK-35987",
        "meta_object_id": "2025-281N",
        "meta_epoch": "2025-12-21T06:00:00.999648",
        "meta_mean_motion": 15.7138825,
        "meta_eccentricity": 0.00011875,
        "meta_inclination": 43.0002,
        "meta_ra_of_asc_node": 70.2632,
        "meta_arg_of_pericenter": 274.1813,
        "meta_mean_anomaly": 153.842,
        "meta_ephemeris_type": 0,
        "meta_classification_type": "U",
        "meta_norad_cat_id": 66860,
        "meta_element_set_no": 999,
        "meta_rev_at_epoch": 276,
        "meta_bstar": -0.016533901,
        "meta_mean_motion_dot": -0.01924823,
        "meta_mean_motion_ddot": 0,
        "tle_line1": "1 66860U 25281N   25355.25001157 -.01924823  00000+0 -16534-1 0  9995",
        "tle_line2": "2 66860  43.0002  70.2632 0001187 274.1813 153.8420 15.71388250  2768"
      },
      "geometry": {
        "type": "Point",
        "coordinates": [
          32.139497998035054,
          -28.67781679727744
        ]
      }
    },
    {
      "type": "Feature",
      "properties": {
        "norad_id": 66861,
        "name": "STARLINK-35991",
        "group": "last-30-days",
        "lat": -31.732923427699447,
        "lon": 26.523030020136968,
        "alt_km": 361.23935863349834,
        "timestamp": "2025-12-21T14:40:46.635061+00:00",
        "meta_object_name": "STARLINK-35991",
        "meta_object_id": "2025-281P",
        "meta_epoch": "2025-12-21T06:00:00.999648",
        "meta_mean_motion": 15.71386033,
        "meta_eccentricity": 0.00014294,
        "meta_inclination": 43.0019,
        "meta_ra_of_asc_node": 70.278,
        "meta_arg_of_pericenter": 273.7371,
        "meta_mean_anomaly": 148.5375,
        "meta_ephemeris_type": 0,
        "meta_classification_type": "U",
        "meta_norad_cat_id": 66861,
        "meta_element_set_no": 999,
        "meta_rev_at_epoch": 276,
        "meta_bstar": -0.0165302,
        "meta_mean_motion_dot": -0.01924459,
        "meta_mean_motion_ddot": 0,
        "tle_line1": "1 66861U 25281P   25355.25001157 -.01924459  00000+0 -16530-1 0  9997",
        "tle_line2": "2 66861  43.0019  70.2780 0001429 273.7371 148.5375 15.71386033  2761"
      },
      "geometry": {
        "type": "Point",
        "coordinates": [
          26.523030020136968,
          -31.732923427699447
        ]
      }
    },
    {
      "type": "Feature",
      "properties": {
        "norad_id": 66862,
        "name": "STARLINK-35974",
        "group": "last-30-days",
        "lat": -32.6956245249142,
        "lon": 24.56390117259904,
        "alt_km": 361.3822189714747,
        "timestamp": "2025-12-21T14:40:46.635071+00:00",
        "meta_object_name": "STARLINK-35974",
        "meta_object_id": "2025-281Q",
        "meta_epoch": "2025-12-21T06:00:00.999648",
        "meta_mean_motion": 15.71386122,
        "meta_eccentricity": 0.00011374,
        "meta_inclination": 42.9999,
        "meta_ra_of_asc_node": 70.2821,
        "meta_arg_of_pericenter": 280.4746,
        "meta_mean_anomaly": 139.8824,
        "meta_ephemeris_type": 0,
        "meta_classification_type": "U",
        "meta_norad_cat_id": 66862,
        "meta_element_set_no": 999,
        "meta_rev_at_epoch": 266,
        "meta_bstar": -0.016539064,
        "meta_mean_motion_dot": -0.01925163,
        "meta_mean_motion_ddot": 0,
        "tle_line1": "1 66862U 25281Q   25355.25001157 -.01925163  00000+0 -16539-1 0  9990",
        "tle_line2": "2 66862  42.9999  70.2821 0001137 280.4746 139.8824 15.71386122  2660"
      },
      "geometry": {
        "type": "Point",
        "coordinates": [
          24.56390117259904,
          -32.6956245249142
        ]
      }
    }
  ]
}